[{"OBJECT_NAME":"OBJECT C","OBJECT_ID":"2025-274C","EPOCH":"2026-03-09T09:15:50.748192","MEAN_MOTION":14.92548925,"ECCENTRICITY":0.00113303,"INCLINATION":97.7436,"RA_OF_ASC_NODE":359.0846,"ARG_OF_PERICENTER":338.0419,"MEAN_ANOMALY":22.0314,"EPHEMERIS_TYPE":0,"CLASSIFICATION_TYPE":"U","NORAD_CAT_ID":66652,"ELEMENT_SET_NO":999,"REV_AT_EPOCH":1532,"BSTAR":0.00033513177,"MEAN_MOTION_DOT":3.392e-5,"MEAN_MOTION_DDOT":0},{"OBJECT_NAME":"SL-14 R\/B","OBJECT_ID":"1986-018B","EPOCH":"2026-03-09T17:21:36.966528","MEAN_MOTION":14.86680008,"ECCENTRICITY":0.00180747,"INCLINATION":82.5187,"RA_OF_ASC_NODE":182.8859,"ARG_OF_PERICENTER":65.0322,"MEAN_ANOMALY":295.277,"EPHEMERIS_TYPE":0,"CLASSIFICATION_TYPE":"U","NORAD_CAT_ID":16612,"ELEMENT_SET_NO":999,"REV_AT_EPOCH":4335,"BSTAR":7.8697814e-5,"MEAN_MOTION_DOT":7.25e-6,"MEAN_MOTION_DDOT":0}]
